[Satellite]
VERSION=1.1
NAME=LEMUR-2-GREENBERG
NICKNAME=LEMUR-2-GREENBERG
TLE1=1 42837U 17042N   18020.71173184  .00000527  00000-0  58245-4 0  9993
TLE2=2 42837  97.6082 288.6510 0012726 334.9444  25.1155 14.91297836 28376
